[
    {
        "Altitude(m)": 553957.6765774518,
        "Argument of Periapsis(deg)": 0.019868973332140504,
        "Eccentricity": 0.0,
        "Inclination(deg)": 53.0,
        "Latitude(deg)": 2.34859661299175,
        "Longitude(deg)": 44.38096459278995,
        "Mean Anomaly(deg)": 3.00207860273276,
        "RAAN(deg)": 144.9704301055841,
        "Satellite Name": "Starlink Shell 1 658",
        "Satellite Number": 658,
        "Semi-Major Axis(m)": 6931778.249405717,
        "Time(s)": 570
    },
    {
        "Altitude(m)": 553906.817356284,
        "Argument of Periapsis(deg)": 0.02021755181165174,
        "Eccentricity": 0.0,
        "Inclination(deg)": 53.0,
        "Latitude(deg)": 2.8522820879086725,
        "Longitude(deg)": 44.71714066816028,
        "Mean Anomaly(deg)": 3.62890980628943,
        "RAAN(deg)": 144.9699113355066,
        "Satellite Name": "Starlink Shell 1 658",
        "Satellite Number": 658,
        "Semi-Major Axis(m)": 6931778.249405717,
        "Time(s)": 580
    },
    {
        "Altitude(m)": 553858.7795123826,
        "Argument of Periapsis(deg)": 0.020566130291162974,
        "Eccentricity": 0.0,
        "Inclination(deg)": 53.0,
        "Latitude(deg)": 3.35584712010748,
        "Longitude(deg)": 45.05365147802588,
        "Mean Anomaly(deg)": 4.255741009846177,
        "RAAN(deg)": 144.96939256542913,
        "Satellite Name": "Starlink Shell 1 658",
        "Satellite Number": 658,
        "Semi-Major Axis(m)": 6931778.249405717,
        "Time(s)": 590
    },
    {
        "Altitude(m)": 553813.5626915337,
        "Argument of Periapsis(deg)": 0.020914708770674213,
        "Eccentricity": 0.0,
        "Inclination(deg)": 53.0,
        "Latitude(deg)": 3.8592685710731955,
        "Longitude(deg)": 45.39055506054291,
        "Mean Anomaly(deg)": 4.882572213402923,
        "RAAN(deg)": 144.96887379535164,
        "Satellite Name": "Starlink Shell 1 658",
        "Satellite Number": 658,
        "Semi-Major Axis(m)": 6931778.249405717,
        "Time(s)": 600
    },
    {
        "Altitude(m)": 553771.1651912068,
        "Argument of Periapsis(deg)": 0.021263287250185448,
        "Eccentricity": 0.0,
        "Inclination(deg)": 53.0,
        "Latitude(deg)": 4.362523220122329,
        "Longitude(deg)": 45.72790962804949,
        "Mean Anomaly(deg)": 5.509403416959619,
        "RAAN(deg)": 144.96835502527415,
        "Satellite Name": "Starlink Shell 1 658",
        "Satellite Number": 658,
        "Semi-Major Axis(m)": 6931778.249405717,
        "Time(s)": 610
    },
    {
        "Altitude(m)": 553731.5839641629,
        "Argument of Periapsis(deg)": 0.021611865729696686,
        "Eccentricity": 0.0,
        "Inclination(deg)": 53.0,
        "Latitude(deg)": 4.86558775242128,
        "Longitude(deg)": 46.06577409681052,
        "Mean Anomaly(deg)": 6.136234620516365,
        "RAAN(deg)": 144.9678362551967,
        "Satellite Name": "Starlink Shell 1 658",
        "Satellite Number": 658,
        "Semi-Major Axis(m)": 6931778.249405717,
        "Time(s)": 620
    },
    {
        "Altitude(m)": 553694.8146227503,
        "Argument of Periapsis(deg)": 0.02196044420920792,
        "Eccentricity": 0.0,
        "Inclination(deg)": 53.0,
        "Latitude(deg)": 5.368438746912656,
        "Longitude(deg)": 46.40420693585206,
        "Mean Anomaly(deg)": 6.76306582407301,
        "RAAN(deg)": 144.96731748511925,
        "Satellite Name": "Starlink Shell 1 658",
        "Satellite Number": 658,
        "Semi-Major Axis(m)": 6931778.249405717,
        "Time(s)": 630
    },
    {
        "Altitude(m)": 553660.8514438637,
        "Argument of Periapsis(deg)": 0.02230902268871916,
        "Eccentricity": 0.0,
        "Inclination(deg)": 53.0,
        "Latitude(deg)": 5.871052664145738,
        "Longitude(deg)": 46.74326753731938,
        "Mean Anomaly(deg)": 7.3898970276297815,
        "RAAN(deg)": 144.96679871504173,
        "Satellite Name": "Starlink Shell 1 658",
        "Satellite Number": 658,
        "Semi-Major Axis(m)": 6931778.249405717,
        "Time(s)": 640
    },
    {
        "Altitude(m)": 553629.6873745687,
        "Argument of Periapsis(deg)": 0.022657601168230398,
        "Eccentricity": 0.0,
        "Inclination(deg)": 53.0,
        "Latitude(deg)": 6.373405833990092,
        "Longitude(deg)": 47.08301506544999,
        "Mean Anomaly(deg)": 8.016728231186528,
        "RAAN(deg)": 144.96627994496427,
        "Satellite Name": "Starlink Shell 1 658",
        "Satellite Number": 658,
        "Semi-Major Axis(m)": 6931778.249405717,
        "Time(s)": 650
    },
    {
        "Altitude(m)": 553601.3140383948,
        "Argument of Periapsis(deg)": 0.023006179647741636,
        "Eccentricity": 0.0,
        "Inclination(deg)": 53.0,
        "Latitude(deg)": 6.875474443228937,
        "Longitude(deg)": 47.42350898659602,
        "Mean Anomaly(deg)": 8.6435594347432,
        "RAAN(deg)": 144.9657611748868,
        "Satellite Name": "Starlink Shell 1 658",
        "Satellite Number": 658,
        "Semi-Major Axis(m)": 6931778.249405717,
        "Time(s)": 660
    },
    {
        "Altitude(m)": 553575.7217422638,
        "Argument of Periapsis(deg)": 0.023354758127252868,
        "Eccentricity": 0.0,
        "Inclination(deg)": 53.0,
        "Latitude(deg)": 7.3772345230170195,
        "Longitude(deg)": 47.76480959932812,
        "Mean Anomaly(deg)": 9.27039063829997,
        "RAAN(deg)": 144.96524240480932,
        "Satellite Name": "Starlink Shell 1 658",
        "Satellite Number": 658,
        "Semi-Major Axis(m)": 6931778.249405717,
        "Time(s)": 670
    },
    {
        "Altitude(m)": 553552.8994841145,
        "Argument of Periapsis(deg)": 0.023703336606764106,
        "Eccentricity": 0.0,
        "Inclination(deg)": 53.0,
        "Latitude(deg)": 7.878661936188535,
        "Longitude(deg)": 48.10697705175183,
        "Mean Anomaly(deg)": 9.897221841856615,
        "RAAN(deg)": 144.96472363473185,
        "Satellite Name": "Starlink Shell 1 658",
        "Satellite Number": 658,
        "Semi-Major Axis(m)": 6931778.249405717,
        "Time(s)": 680
    },
    {
        "Altitude(m)": 553532.8349611304,
        "Argument of Periapsis(deg)": 0.024051915086275345,
        "Eccentricity": 0.0,
        "Inclination(deg)": 53.0,
        "Latitude(deg)": 8.379732364409666,
        "Longitude(deg)": 48.45007187178725,
        "Mean Anomaly(deg)": 10.524053045413261,
        "RAAN(deg)": 144.9642048646544,
        "Satellite Name": "Starlink Shell 1 658",
        "Satellite Number": 658,
        "Semi-Major Axis(m)": 6931778.249405717,
        "Time(s)": 690
    },
    {
        "Altitude(m)": 553515.5145786481,
        "Argument of Periapsis(deg)": 0.024400493565786583,
        "Eccentricity": 0.0,
        "Inclination(deg)": 53.0,
        "Latitude(deg)": 8.880421295159458,
        "Longitude(deg)": 48.79415549754052,
        "Mean Anomaly(deg)": 11.150884248970032,
        "RAAN(deg)": 144.9636860945769,
        "Satellite Name": "Starlink Shell 1 658",
        "Satellite Number": 658,
        "Semi-Major Axis(m)": 6931778.249405717,
        "Time(s)": 700
    },
    {
        "Altitude(m)": 553500.9234596844,
        "Argument of Periapsis(deg)": 0.024749072045297815,
        "Eccentricity": 0.0,
        "Inclination(deg)": 53.0,
        "Latitude(deg)": 9.380704008525909,
        "Longitude(deg)": 49.13928929489469,
        "Mean Anomaly(deg)": 11.777715452526703,
        "RAAN(deg)": 144.96316732449944,
        "Satellite Name": "Starlink Shell 1 658",
        "Satellite Number": 658,
        "Semi-Major Axis(m)": 6931778.249405717,
        "Time(s)": 710
    },
    {
        "Altitude(m)": 553489.0454551145,
        "Argument of Periapsis(deg)": 0.025097650524809053,
        "Eccentricity": 0.0,
        "Inclination(deg)": 53.0,
        "Latitude(deg)": 9.88055556381057,
        "Longitude(deg)": 49.48553508807007,
        "Mean Anomaly(deg)": 12.404546656083449,
        "RAAN(deg)": 144.96264855442197,
        "Satellite Name": "Starlink Shell 1 658",
        "Satellite Number": 658,
        "Semi-Major Axis(m)": 6931778.249405717,
        "Time(s)": 720
    },
    {
        "Altitude(m)": 553479.863154445,
        "Argument of Periapsis(deg)": 0.02544622900432029,
        "Eccentricity": 0.0,
        "Inclination(deg)": 53.0,
        "Latitude(deg)": 10.379950785925013,
        "Longitude(deg)": 49.83295569027708,
        "Mean Anomaly(deg)": 13.031377859640221,
        "RAAN(deg)": 144.96212978434448,
        "Satellite Name": "Starlink Shell 1 658",
        "Satellite Number": 658,
        "Semi-Major Axis(m)": 6931778.249405717,
        "Time(s)": 730
    },
    {
        "Altitude(m)": 553473.3578972705,
        "Argument of Periapsis(deg)": 0.02579480748383153,
        "Eccentricity": 0.0,
        "Inclination(deg)": 53.0,
        "Latitude(deg)": 10.878864251567116,
        "Longitude(deg)": 50.18161392158932,
        "Mean Anomaly(deg)": 13.658209063196864,
        "RAAN(deg)": 144.96161101426702,
        "Satellite Name": "Starlink Shell 1 658",
        "Satellite Number": 658,
        "Semi-Major Axis(m)": 6931778.249405717,
        "Time(s)": 740
    },
    {
        "Altitude(m)": 553469.5097852744,
        "Argument of Periapsis(deg)": 0.026143385963342765,
        "Eccentricity": 0.0,
        "Inclination(deg)": 53.0,
        "Latitude(deg)": 11.377270275168447,
        "Longitude(deg)": 50.531573139780555,
        "Mean Anomaly(deg)": 14.285040266753613,
        "RAAN(deg)": 144.96109224418956,
        "Satellite Name": "Starlink Shell 1 658",
        "Satellite Number": 658,
        "Semi-Major Axis(m)": 6931778.249405717,
        "Time(s)": 750
    }
]